STARLINK-34356          
1 64303U 25123N   26082.24837646  .00003877  00000+0  33259-3 0  9996
2 64303  70.0016 160.1034 0003568 265.4002  94.6750 14.98325705 43651
STARLINK-34360          
1 64304U 25123P   26082.22770701  .00012887  00000+0  10863-2 0  9999
2 64304  70.0012 160.4310 0003421 268.0321  92.0446 14.98313478 43646
STARLINK-34383          
1 64305U 25123Q   26082.24439543  .00010183  00000+0  86002-3 0  9994
2 64305  70.0012 160.4867 0004265 288.2005  71.8690 14.98325421 43641
STARLINK-34355          
1 64306U 25123R   26082.24023373  .00052563  00000+0  43828-2 0  9991
2 64306  70.0008 160.4738 0004055 265.7437  94.3259 14.98303226 43640
STARLINK-34380          
1 64307U 25123S   26082.00002315  .00042021  00000+0  35110-2 0  9992
2 64307  70.0010 161.0544 0003516 273.1708 254.1471 14.98300600  5734
STARLINK-34374          
1 64308U 25123T   26082.22352753  .00010307  00000+0  87037-3 0  9999
2 64308  70.0016 160.4148 0004130 271.7708  88.2978 14.98324108 43640
STARLINK-34370          
1 64309U 25123U   26082.21518146  .00011366  00000+0  95906-3 0  9999
2 64309  70.0024 160.3846 0003553 264.9864  95.0890 14.98319731 43644
STARLINK-34357          
1 64310U 25123V   26081.63503946  .00000466  00000+0  46828-4 0  9997
2 64310  70.0016 161.9806 0004037 269.7840  90.2857 14.98325802 43551
STARLINK-34368          
1 64311U 25123W   26082.22752586  .00005940  00000+0  50546-3 0  9993
2 64311  70.0014 160.4243 0003328 268.5421  91.5356 14.98309227 43644
STARLINK-34384          
1 64312U 25123X   26082.21917386  .00014152  00000+0  11906-2 0  9995
2 64312  70.0013 160.4049 0004076 271.3514  88.7178 14.98353464 43646
STARLINK-34358          
1 64313U 25123Y   26082.25001157 -.00002141  00000+0 -17163-3 0  9999
2 64313  70.0014 160.2764 0003653 263.7508 307.5450 14.98338942  5768
STARLINK-34354          
1 64314U 25123Z   26082.00002315  .00034823  00000+0  29138-2 0  9994
2 64314  70.0013 160.8563 0003463 268.6239  79.7562 14.98302510  5770
STARLINK-34387          
1 64315U 25123AA  26082.19414164  .00004829  00000+0  41230-3 0  9995
2 64315  70.0017 160.3178 0003791 268.4961  91.5764 14.98323500 43642
STARLINK-33590          
1 64316U 25123AB  26081.66857652 -.00019971  00000+0 -16721-2 0  9992
2 64316  70.0045 161.6836 0002566 303.0587  57.0325 14.98298863 43562
STARLINK-11736 [DTC]    
1 64317U 25124A   26081.93119426  .00243803  00000+0  18426-2 0  9999
2 64317  42.9986 309.6943 0002292 300.2398  59.8242 15.70913380 44910
STARLINK-11673 [DTC]    
1 64318U 25124B   26081.90995710  .00226801  00000+0  17198-2 0  9999
2 64318  43.0006 309.5237 0001866 260.6267  99.4390 15.70887058 44917
