[{"OBJECT_NAME":"STARLINK-34356","OBJECT_ID":"2025-123N","EPOCH":"2026-03-23T05:57:39.726144","MEAN_MOTION":14.98325705,"ECCENTRICITY":0.00035687,"INCLINATION":70.0016,"RA_OF_ASC_NODE":160.1034,"ARG_OF_PERICENTER":265.4002,"MEAN_ANOMALY":94.675,"EPHEMERIS_TYPE":0,"CLASSIFICATION_TYPE":"U","NORAD_CAT_ID":64303,"ELEMENT_SET_NO":999,"REV_AT_EPOCH":4365,"BSTAR":0.00033259392,"MEAN_MOTION_DOT":3.877e-5,"MEAN_MOTION_DDOT":0},{"OBJECT_NAME":"STARLINK-34360","OBJECT_ID":"2025-123P","EPOCH":"2026-03-23T05:27:53.885664","MEAN_MOTION":14.98313478,"ECCENTRICITY":0.00034216,"INCLINATION":70.0012,"RA_OF_ASC_NODE":160.431,"ARG_OF_PERICENTER":268.0321,"MEAN_ANOMALY":92.0446,"EPHEMERIS_TYPE":0,"CLASSIFICATION_TYPE":"U","NORAD_CAT_ID":64304,"ELEMENT_SET_NO":999,"REV_AT_EPOCH":4364,"BSTAR":0.0010863132,"MEAN_MOTION_DOT":0.00012887,"MEAN_MOTION_DDOT":0},{"OBJECT_NAME":"STARLINK-34383","OBJECT_ID":"2025-123Q","EPOCH":"2026-03-23T05:51:55.765152","MEAN_MOTION":14.98325421,"ECCENTRICITY":0.00042655,"INCLINATION":70.0012,"RA_OF_ASC_NODE":160.4867,"ARG_OF_PERICENTER":288.2005,"MEAN_ANOMALY":71.869,"EPHEMERIS_TYPE":0,"CLASSIFICATION_TYPE":"U","NORAD_CAT_ID":64305,"ELEMENT_SET_NO":999,"REV_AT_EPOCH":4364,"BSTAR":0.00086002093,"MEAN_MOTION_DOT":0.00010183,"MEAN_MOTION_DDOT":0},{"OBJECT_NAME":"STARLINK-34355","OBJECT_ID":"2025-123R","EPOCH":"2026-03-23T05:45:56.194272","MEAN_MOTION":14.98303226,"ECCENTRICITY":0.00040558,"INCLINATION":70.0008,"RA_OF_ASC_NODE":160.4738,"ARG_OF_PERICENTER":265.7437,"MEAN_ANOMALY":94.3259,"EPHEMERIS_TYPE":0,"CLASSIFICATION_TYPE":"U","NORAD_CAT_ID":64306,"ELEMENT_SET_NO":999,"REV_AT_EPOCH":4364,"BSTAR":0.004382819,"MEAN_MOTION_DOT":0.00052563,"MEAN_MOTION_DDOT":0},{"OBJECT_NAME":"STARLINK-34380","OBJECT_ID":"2025-123S","EPOCH":"2026-03-23T00:00:02.000160","MEAN_MOTION":14.983006,"ECCENTRICITY":0.00035167,"INCLINATION":70.001,"RA_OF_ASC_NODE":161.0544,"ARG_OF_PERICENTER":273.1708,"MEAN_ANOMALY":254.1471,"EPHEMERIS_TYPE":0,"CLASSIFICATION_TYPE":"U","NORAD_CAT_ID":64307,"ELEMENT_SET_NO":999,"REV_AT_EPOCH":573,"BSTAR":0.0035110374,"MEAN_MOTION_DOT":0.00042021,"MEAN_MOTION_DDOT":0},{"OBJECT_NAME":"STARLINK-34374","OBJECT_ID":"2025-123T","EPOCH":"2026-03-23T05:21:52.778592","MEAN_MOTION":14.98324108,"ECCENTRICITY":0.00041305,"INCLINATION":70.0016,"RA_OF_ASC_NODE":160.4148,"ARG_OF_PERICENTER":271.7708,"MEAN_ANOMALY":88.2978,"EPHEMERIS_TYPE":0,"CLASSIFICATION_TYPE":"U","NORAD_CAT_ID":64308,"ELEMENT_SET_NO":999,"REV_AT_EPOCH":4364,"BSTAR":0.0008703722,"MEAN_MOTION_DOT":0.00010307,"MEAN_MOTION_DDOT":0},{"OBJECT_NAME":"STARLINK-34370","OBJECT_ID":"2025-123U","EPOCH":"2026-03-23T05:09:51.678144","MEAN_MOTION":14.98319731,"ECCENTRICITY":0.00035535,"INCLINATION":70.0024,"RA_OF_ASC_NODE":160.3846,"ARG_OF_PERICENTER":264.9864,"MEAN_ANOMALY":95.089,"EPHEMERIS_TYPE":0,"CLASSIFICATION_TYPE":"U","NORAD_CAT_ID":64309,"ELEMENT_SET_NO":999,"REV_AT_EPOCH":4364,"BSTAR":0.00095906435,"MEAN_MOTION_DOT":0.00011366,"MEAN_MOTION_DDOT":0},{"OBJECT_NAME":"STARLINK-34357","OBJECT_ID":"2025-123V","EPOCH":"2026-03-22T15:14:27.409344","MEAN_MOTION":14.98325802,"ECCENTRICITY":0.00040376,"INCLINATION":70.0016,"RA_OF_ASC_NODE":161.9806,"ARG_OF_PERICENTER":269.784,"MEAN_ANOMALY":90.2857,"EPHEMERIS_TYPE":0,"CLASSIFICATION_TYPE":"U","NORAD_CAT_ID":64310,"ELEMENT_SET_NO":999,"REV_AT_EPOCH":4355,"BSTAR":4.6828463e-5,"MEAN_MOTION_DOT":4.66e-6,"MEAN_MOTION_DDOT":0},{"OBJECT_NAME":"STARLINK-34368","OBJECT_ID":"2025-123W","EPOCH":"2026-03-23T05:27:38.234304","MEAN_MOTION":14.98309227,"ECCENTRICITY":0.00033282,"INCLINATION":70.0014,"RA_OF_ASC_NODE":160.4243,"ARG_OF_PERICENTER":268.5421,"MEAN_ANOMALY":91.5356,"EPHEMERIS_TYPE":0,"CLASSIFICATION_TYPE":"U","NORAD_CAT_ID":64311,"ELEMENT_SET_NO":999,"REV_AT_EPOCH":4364,"BSTAR":0.00050546036,"MEAN_MOTION_DOT":5.94e-5,"MEAN_MOTION_DDOT":0},{"OBJECT_NAME":"STARLINK-34384","OBJECT_ID":"2025-123X","EPOCH":"2026-03-23T05:15:36.621504","MEAN_MOTION":14.98353464,"ECCENTRICITY":0.00040769,"INCLINATION":70.0013,"RA_OF_ASC_NODE":160.4049,"ARG_OF_PERICENTER":271.3514,"MEAN_ANOMALY":88.7178,"EPHEMERIS_TYPE":0,"CLASSIFICATION_TYPE":"U","NORAD_CAT_ID":64312,"ELEMENT_SET_NO":999,"REV_AT_EPOCH":4364,"BSTAR":0.0011906226,"MEAN_MOTION_DOT":0.00014152,"MEAN_MOTION_DDOT":0},{"OBJECT_NAME":"STARLINK-34358","OBJECT_ID":"2025-123Y","EPOCH":"2026-03-23T06:00:00.999648","MEAN_MOTION":14.98338942,"ECCENTRICITY":0.00036534,"INCLINATION":70.0014,"RA_OF_ASC_NODE":160.2764,"ARG_OF_PERICENTER":263.7508,"MEAN_ANOMALY":307.545,"EPHEMERIS_TYPE":0,"CLASSIFICATION_TYPE":"U","NORAD_CAT_ID":64313,"ELEMENT_SET_NO":999,"REV_AT_EPOCH":576,"BSTAR":-0.00017162921,"MEAN_MOTION_DOT":-2.141e-5,"MEAN_MOTION_DDOT":0},{"OBJECT_NAME":"STARLINK-34354","OBJECT_ID":"2025-123Z","EPOCH":"2026-03-23T00:00:02.000160","MEAN_MOTION":14.9830251,"ECCENTRICITY":0.0003463,"INCLINATION":70.0013,"RA_OF_ASC_NODE":160.8563,"ARG_OF_PERICENTER":268.6239,"MEAN_ANOMALY":79.7562,"EPHEMERIS_TYPE":0,"CLASSIFICATION_TYPE":"U","NORAD_CAT_ID":64314,"ELEMENT_SET_NO":999,"REV_AT_EPOCH":577,"BSTAR":0.002913811,"MEAN_MOTION_DOT":0.00034823,"MEAN_MOTION_DDOT":0},{"OBJECT_NAME":"STARLINK-34387","OBJECT_ID":"2025-123AA","EPOCH":"2026-03-23T04:39:33.837696","MEAN_MOTION":14.983235,"ECCENTRICITY":0.00037915,"INCLINATION":70.0017,"RA_OF_ASC_NODE":160.3178,"ARG_OF_PERICENTER":268.4961,"MEAN_ANOMALY":91.5764,"EPHEMERIS_TYPE":0,"CLASSIFICATION_TYPE":"U","NORAD_CAT_ID":64315,"ELEMENT_SET_NO":999,"REV_AT_EPOCH":4364,"BSTAR":0.00041230326,"MEAN_MOTION_DOT":4.829e-5,"MEAN_MOTION_DDOT":0},{"OBJECT_NAME":"STARLINK-33590","OBJECT_ID":"2025-123AB","EPOCH":"2026-03-22T16:02:45.011328","MEAN_MOTION":14.98298863,"ECCENTRICITY":0.00025668,"INCLINATION":70.0045,"RA_OF_ASC_NODE":161.6836,"ARG_OF_PERICENTER":303.0587,"MEAN_ANOMALY":57.0325,"EPHEMERIS_TYPE":0,"CLASSIFICATION_TYPE":"U","NORAD_CAT_ID":64316,"ELEMENT_SET_NO":999,"REV_AT_EPOCH":4356,"BSTAR":-0.0016721325,"MEAN_MOTION_DOT":-0.00019971,"MEAN_MOTION_DDOT":0},{"OBJECT_NAME":"STARLINK-11736 [DTC]","OBJECT_ID":"2025-124A","EPOCH":"2026-03-22T22:20:55.184064","MEAN_MOTION":15.7091338,"ECCENTRICITY":0.00022926,"INCLINATION":42.9986,"RA_OF_ASC_NODE":309.6943,"ARG_OF_PERICENTER":300.2398,"MEAN_ANOMALY":59.8242,"EPHEMERIS_TYPE":0,"CLASSIFICATION_TYPE":"U","NORAD_CAT_ID":64317,"ELEMENT_SET_NO":999,"REV_AT_EPOCH":4491,"BSTAR":0.0018425894,"MEAN_MOTION_DOT":0.00243803,"MEAN_MOTION_DDOT":0},{"OBJECT_NAME":"STARLINK-11673 [DTC]","OBJECT_ID":"2025-124B","EPOCH":"2026-03-22T21:50:20.293440","MEAN_MOTION":15.70887058,"ECCENTRICITY":0.00018669,"INCLINATION":43.0006,"RA_OF_ASC_NODE":309.5237,"ARG_OF_PERICENTER":260.6267,"MEAN_ANOMALY":99.439,"EPHEMERIS_TYPE":0,"CLASSIFICATION_TYPE":"U","NORAD_CAT_ID":64318,"ELEMENT_SET_NO":999,"REV_AT_EPOCH":4491,"BSTAR":0.0017197968,"MEAN_MOTION_DOT":0.00226801,"MEAN_MOTION_DDOT":0}]
